{
  "type": "FeatureCollection",
  "features": [
    {
      "type": "Feature",
      "properties": {
        "norad_id": 66801,
        "name": "STARLINK-36080",
        "group": "last-30-days",
        "lat": -37.083478619834516,
        "lon": 86.3477015616568,
        "alt_km": 367.8265934073279,
        "timestamp": "2025-12-19T06:59:42.650708+00:00",
        "meta_object_name": "STARLINK-36080",
        "meta_object_id": "2025-278L",
        "meta_epoch": "2025-12-19T00:00:02.000160",
        "meta_mean_motion": 15.68861899,
        "meta_eccentricity": 0.00015796,
        "meta_inclination": 42.999,
        "meta_ra_of_asc_node": 213.8894,
        "meta_arg_of_pericenter": 276.7399,
        "meta_mean_anomaly": 118.0177,
        "meta_ephemeris_type": 0,
        "meta_classification_type": "U",
        "meta_norad_cat_id": 66801,
        "meta_element_set_no": 999,
        "meta_rev_at_epoch": 396,
        "meta_bstar": -0.018152599,
        "meta_mean_motion_dot": -0.01902732,
        "meta_mean_motion_ddot": 0,
        "tle_line1": "1 66801U 25278L   25353.00002315 -.01902732  00000+0 -18153-1 0  9998",
        "tle_line2": "2 66801  42.9990 213.8894 0001579 276.7399 118.0177 15.68861899  3960"
      },
      "geometry": {
        "type": "Point",
        "coordinates": [
          86.3477015616568,
          -37.083478619834516
        ]
      }
    },
    {
      "type": "Feature",
      "properties": {
        "norad_id": 66802,
        "name": "STARLINK-35604",
        "group": "last-30-days",
        "lat": -31.840430067936207,
        "lon": 73.96211608220285,
        "alt_km": 367.6755086368257,
        "timestamp": "2025-12-19T06:59:42.650724+00:00",
        "meta_object_name": "STARLINK-35604",
        "meta_object_id": "2025-278M",
        "meta_epoch": "2025-12-19T00:00:02.000160",
        "meta_mean_motion": 15.68844882,
        "meta_eccentricity": 0.00015831,
        "meta_inclination": 42.9991,
        "meta_ra_of_asc_node": 213.9193,
        "meta_arg_of_pericenter": 273.8708,
        "meta_mean_anomaly": 109.398,
        "meta_ephemeris_type": 0,
        "meta_classification_type": "U",
        "meta_norad_cat_id": 66802,
        "meta_element_set_no": 999,
        "meta_rev_at_epoch": 396,
        "meta_bstar": -0.017986036,
        "meta_mean_motion_dot": -0.01886049,
        "meta_mean_motion_ddot": 0,
        "tle_line1": "1 66802U 25278M   25353.00002315 -.01886049  00000+0 -17986-1 0  9994",
        "tle_line2": "2 66802  42.9991 213.9193 0001583 273.8708 109.3980 15.68844882  3960"
      },
      "geometry": {
        "type": "Point",
        "coordinates": [
          73.96211608220285,
          -31.840430067936207
        ]
      }
    },
    {
      "type": "Feature",
      "properties": {
        "norad_id": 66803,
        "name": "STARLINK-35565",
        "group": "last-30-days",
        "lat": -33.725433045459745,
        "lon": 77.91725624602918,
        "alt_km": 367.66593286022817,
        "timestamp": "2025-12-19T06:59:42.650738+00:00",
        "meta_object_name": "STARLINK-35565",
        "meta_object_id": "2025-278N",
        "meta_epoch": "2025-12-19T00:00:02.000160",
        "meta_mean_motion": 15.68858161,
        "meta_eccentricity": 0.00015958,
        "meta_inclination": 42.9993,
        "meta_ra_of_asc_node": 213.9095,
        "meta_arg_of_pericenter": 271.1595,
        "meta_mean_anomaly": 115.9322,
        "meta_ephemeris_type": 0,
        "meta_classification_type": "U",
        "meta_norad_cat_id": 66803,
        "meta_element_set_no": 999,
        "meta_rev_at_epoch": 405,
        "meta_bstar": -0.018115426,
        "meta_mean_motion_dot": -0.01899026,
        "meta_mean_motion_ddot": 0,
        "tle_line1": "1 66803U 25278N   25353.00002315 -.01899026  00000+0 -18115-1 0  9999",
        "tle_line2": "2 66803  42.9993 213.9095 0001595 271.1595 115.9322 15.68858161  4051"
      },
      "geometry": {
        "type": "Point",
        "coordinates": [
          77.91725624602918,
          -33.725433045459745
        ]
      }
    },
    {
      "type": "Feature",
      "properties": {
        "norad_id": 66804,
        "name": "STARLINK-36038",
        "group": "last-30-days",
        "lat": -34.6191921887247,
        "lon": 79.9589803136291,
        "alt_km": 367.7117170522106,
        "timestamp": "2025-12-19T06:59:42.650748+00:00",
        "meta_object_name": "STARLINK-36038",
        "meta_object_id": "2025-278P",
        "meta_epoch": "2025-12-19T00:00:02.000160",
        "meta_mean_motion": 15.68857998,
        "meta_eccentricity": 0.00015874,
        "meta_inclination": 42.9995,
        "meta_ra_of_asc_node": 213.9052,
        "meta_arg_of_pericenter": 272.5662,
        "meta_mean_anomaly": 116.4416,
        "meta_ephemeris_type": 0,
        "meta_classification_type": "U",
        "meta_norad_cat_id": 66804,
        "meta_element_set_no": 999,
        "meta_rev_at_epoch": 396,
        "meta_bstar": -0.018098571,
        "meta_mean_motion_dot": -0.0189744,
        "meta_mean_motion_ddot": 0,
        "tle_line1": "1 66804U 25278P   25353.00002315 -.01897440  00000+0 -18099-1 0  9999",
        "tle_line2": "2 66804  42.9995 213.9052 0001587 272.5662 116.4416 15.68857998  3964"
      },
      "geometry": {
        "type": "Point",
        "coordinates": [
          79.9589803136291,
          -34.6191921887247
        ]
      }
    },
    {
      "type": "Feature",
      "properties": {
        "norad_id": 66805,
        "name": "STARLINK-36049",
        "group": "last-30-days",
        "lat": -36.30034913867889,
        "lon": 84.17431921251477,
        "alt_km": 367.7375646586934,
        "timestamp": "2025-12-19T06:59:42.650758+00:00",
        "meta_object_name": "STARLINK-36049",
        "meta_object_id": "2025-278Q",
        "meta_epoch": "2025-12-19T00:00:02.000160",
        "meta_mean_motion": 15.68860989,
        "meta_eccentricity": 0.00016109,
        "meta_inclination": 42.9993,
        "meta_ra_of_asc_node": 213.895,
        "meta_arg_of_pericenter": 272.6199,
        "meta_mean_anomaly": 120.2205,
        "meta_ephemeris_type": 0,
        "meta_classification_type": "U",
        "meta_norad_cat_id": 66805,
        "meta_element_set_no": 999,
        "meta_rev_at_epoch": 396,
        "meta_bstar": -0.018144897,
        "meta_mean_motion_dot": -0.01901975,
        "meta_mean_motion_ddot": 0,
        "tle_line1": "1 66805U 25278Q   25353.00002315 -.01901975  00000+0 -18145-1 0  9991",
        "tle_line2": "2 66805  42.9993 213.8950 0001610 272.6199 120.2205 15.68860989  3965"
      },
      "geometry": {
        "type": "Point",
        "coordinates": [
          84.17431921251477,
          -36.30034913867889
        ]
      }
    },
    {
      "type": "Feature",
      "properties": {
        "norad_id": 66806,
        "name": "STARLINK-36069",
        "group": "last-30-days",
        "lat": -35.478136045763904,
        "lon": 82.04467547824297,
        "alt_km": 367.77061553300246,
        "timestamp": "2025-12-19T06:59:42.650768+00:00",
        "meta_object_name": "STARLINK-36069",
        "meta_object_id": "2025-278R",
        "meta_epoch": "2025-12-19T00:00:02.000160",
        "meta_mean_motion": 15.68860966,
        "meta_eccentricity": 0.00015919,
        "meta_inclination": 42.9993,
        "meta_ra_of_asc_node": 213.9001,
        "meta_arg_of_pericenter": 275.2508,
        "meta_mean_anomaly": 115.6736,
        "meta_ephemeris_type": 0,
        "meta_classification_type": "U",
        "meta_norad_cat_id": 66806,
        "meta_element_set_no": 999,
        "meta_rev_at_epoch": 375,
        "meta_bstar": -0.018150396,
        "meta_mean_motion_dot": -0.0190247,
        "meta_mean_motion_ddot": 0,
        "tle_line1": "1 66806U 25278R   25353.00002315 -.01902470  00000+0 -18150-1 0  9999",
        "tle_line2": "2 66806  42.9993 213.9001 0001591 275.2508 115.6736 15.68860966  3754"
      },
      "geometry": {
        "type": "Point",
        "coordinates": [
          82.04467547824297,
          -35.478136045763904
        ]
      }
    },
    {
      "type": "Feature",
      "properties": {
        "norad_id": 66807,
        "name": "STARLINK-36000",
        "group": "last-30-days",
        "lat": -37.826724099395975,
        "lon": 88.56828406979567,
        "alt_km": 367.7810354642097,
        "timestamp": "2025-12-19T06:59:42.650778+00:00",
        "meta_object_name": "STARLINK-36000",
        "meta_object_id": "2025-278S",
        "meta_epoch": "2025-12-19T00:00:02.000160",
        "meta_mean_motion": 15.68860325,
        "meta_eccentricity": 0.00015696,
        "meta_inclination": 42.9992,
        "meta_ra_of_asc_node": 213.8857,
        "meta_arg_of_pericenter": 271.9085,
        "meta_mean_anomaly": 124.766,
        "meta_ephemeris_type": 0,
        "meta_classification_type": "U",
        "meta_norad_cat_id": 66807,
        "meta_element_set_no": 999,
        "meta_rev_at_epoch": 402,
        "meta_bstar": -0.018129095,
        "meta_mean_motion_dot": -0.01900429,
        "meta_mean_motion_ddot": 0,
        "tle_line1": "1 66807U 25278S   25353.00002315 -.01900429  00000+0 -18129-1 0  9998",
        "tle_line2": "2 66807  42.9992 213.8857 0001569 271.9085 124.7660 15.68860325  4027"
      },
      "geometry": {
        "type": "Point",
        "coordinates": [
          88.56828406979567,
          -37.826724099395975
        ]
      }
    }
  ]
}